[
    {
        "Altitude(m)": 553533.2168699766,
        "Argument of Periapsis(deg)": 0.019868973332140504,
        "Eccentricity": 0.0,
        "Inclination(deg)": 53.0,
        "Latitude(deg)": 15.387866146588786,
        "Longitude(deg)": 34.52261287436348,
        "Mean Anomaly(deg)": 19.36577860273276,
        "RAAN(deg)": 124.97043010558407,
        "Satellite Name": "Starlink Shell 1 571",
        "Satellite Number": 571,
        "Semi-Major Axis(m)": 6931778.249405717,
        "Time(s)": 570
    },
    {
        "Altitude(m)": 553552.4089141176,
        "Argument of Periapsis(deg)": 0.02021755181165174,
        "Eccentricity": 0.0,
        "Inclination(deg)": 53.0,
        "Latitude(deg)": 15.880429020776356,
        "Longitude(deg)": 34.88741923778059,
        "Mean Anomaly(deg)": 19.99260980628943,
        "RAAN(deg)": 124.96991133550657,
        "Satellite Name": "Starlink Shell 1 571",
        "Satellite Number": 571,
        "Semi-Major Axis(m)": 6931778.249405717,
        "Time(s)": 580
    },
    {
        "Altitude(m)": 553573.9911965979,
        "Argument of Periapsis(deg)": 0.020566130291162974,
        "Eccentricity": 0.0,
        "Inclination(deg)": 53.0,
        "Latitude(deg)": 16.37220722158211,
        "Longitude(deg)": 35.25420408464165,
        "Mean Anomaly(deg)": 20.619441009846177,
        "RAAN(deg)": 124.96939256542912,
        "Satellite Name": "Starlink Shell 1 571",
        "Satellite Number": 571,
        "Semi-Major Axis(m)": 6931778.249405717,
        "Time(s)": 590
    },
    {
        "Altitude(m)": 553597.9310689752,
        "Argument of Periapsis(deg)": 0.020914708770674213,
        "Eccentricity": 0.0,
        "Inclination(deg)": 53.0,
        "Latitude(deg)": 16.863171131957028,
        "Longitude(deg)": 35.623038535185884,
        "Mean Anomaly(deg)": 21.24627221340292,
        "RAAN(deg)": 124.96887379535164,
        "Satellite Name": "Starlink Shell 1 571",
        "Satellite Number": 571,
        "Semi-Major Axis(m)": 6931778.249405717,
        "Time(s)": 600
    },
    {
        "Altitude(m)": 553624.1948362509,
        "Argument of Periapsis(deg)": 0.021263287250185448,
        "Eccentricity": 0.0,
        "Inclination(deg)": 53.0,
        "Latitude(deg)": 17.35329067974064,
        "Longitude(deg)": 35.99399457226735,
        "Mean Anomaly(deg)": 21.87310341695962,
        "RAAN(deg)": 124.96835502527416,
        "Satellite Name": "Starlink Shell 1 571",
        "Satellite Number": 571,
        "Semi-Major Axis(m)": 6931778.249405717,
        "Time(s)": 610
    },
    {
        "Altitude(m)": 553652.7477762029,
        "Argument of Periapsis(deg)": 0.021611865729696686,
        "Eccentricity": 0.0,
        "Inclination(deg)": 53.0,
        "Latitude(deg)": 17.842535319431494,
        "Longitude(deg)": 36.36714557234178,
        "Mean Anomaly(deg)": 22.499934620516367,
        "RAAN(deg)": 124.96783625519669,
        "Satellite Name": "Starlink Shell 1 571",
        "Satellite Number": 571,
        "Semi-Major Axis(m)": 6931778.249405717,
        "Time(s)": 620
    },
    {
        "Altitude(m)": 553683.5541592005,
        "Argument of Periapsis(deg)": 0.02196044420920792,
        "Eccentricity": 0.0,
        "Inclination(deg)": 53.0,
        "Latitude(deg)": 18.330874013547394,
        "Longitude(deg)": 36.742565155331015,
        "Mean Anomaly(deg)": 23.12676582407301,
        "RAAN(deg)": 124.96731748511924,
        "Satellite Name": "Starlink Shell 1 571",
        "Satellite Number": 571,
        "Semi-Major Axis(m)": 6931778.249405717,
        "Time(s)": 630
    },
    {
        "Altitude(m)": 553716.5772685391,
        "Argument of Periapsis(deg)": 0.02230902268871916,
        "Eccentricity": 0.0,
        "Inclination(deg)": 53.0,
        "Latitude(deg)": 18.818275213572136,
        "Longitude(deg)": 37.12032855575467,
        "Mean Anomaly(deg)": 23.75359702762978,
        "RAAN(deg)": 124.96679871504173,
        "Satellite Name": "Starlink Shell 1 571",
        "Satellite Number": 571,
        "Semi-Major Axis(m)": 6931778.249405717,
        "Time(s)": 640
    },
    {
        "Altitude(m)": 553751.7794211893,
        "Argument of Periapsis(deg)": 0.022657601168230398,
        "Eccentricity": 0.0,
        "Inclination(deg)": 53.0,
        "Latitude(deg)": 19.30470684046666,
        "Longitude(deg)": 37.500511472170885,
        "Mean Anomaly(deg)": 24.38042823118643,
        "RAAN(deg)": 124.96627994496428,
        "Satellite Name": "Starlink Shell 1 571",
        "Satellite Number": 571,
        "Semi-Major Axis(m)": 6931778.249405717,
        "Time(s)": 650
    },
    {
        "Altitude(m)": 553789.1219890519,
        "Argument of Periapsis(deg)": 0.023006179647741636,
        "Eccentricity": 0.0,
        "Inclination(deg)": 53.0,
        "Latitude(deg)": 19.790136264742447,
        "Longitude(deg)": 37.88319059730837,
        "Mean Anomaly(deg)": 25.007259434743094,
        "RAAN(deg)": 124.96576117488681,
        "Satellite Name": "Starlink Shell 1 571",
        "Satellite Number": 571,
        "Semi-Major Axis(m)": 6931778.249405717,
        "Time(s)": 660
    },
    {
        "Altitude(m)": 553828.5654206136,
        "Argument of Periapsis(deg)": 0.023354758127252868,
        "Eccentricity": 0.0,
        "Inclination(deg)": 53.0,
        "Latitude(deg)": 20.274530286081035,
        "Longitude(deg)": 38.26844414786435,
        "Mean Anomaly(deg)": 25.63409063829997,
        "RAAN(deg)": 124.96524240480933,
        "Satellite Name": "Starlink Shell 1 571",
        "Satellite Number": 571,
        "Semi-Major Axis(m)": 6931778.249405717,
        "Time(s)": 670
    },
    {
        "Altitude(m)": 553870.0692630877,
        "Argument of Periapsis(deg)": 0.023703336606764106,
        "Eccentricity": 0.0,
        "Inclination(deg)": 53.0,
        "Latitude(deg)": 20.757855112487402,
        "Longitude(deg)": 38.65635088103778,
        "Mean Anomaly(deg)": 26.260921841856618,
        "RAAN(deg)": 124.96472363473185,
        "Satellite Name": "Starlink Shell 1 571",
        "Satellite Number": 571,
        "Semi-Major Axis(m)": 6931778.249405717,
        "Time(s)": 680
    },
    {
        "Altitude(m)": 553913.5921848975,
        "Argument of Periapsis(deg)": 0.024051915086275345,
        "Eccentricity": 0.0,
        "Inclination(deg)": 53.0,
        "Latitude(deg)": 21.240076338973406,
        "Longitude(deg)": 39.046990623483794,
        "Mean Anomaly(deg)": 26.88775304541326,
        "RAAN(deg)": 124.9642048646544,
        "Satellite Name": "Starlink Shell 1 571",
        "Satellite Number": 571,
        "Semi-Major Axis(m)": 6931778.249405717,
        "Time(s)": 690
    },
    {
        "Altitude(m)": 553959.0919986669,
        "Argument of Periapsis(deg)": 0.024400493565786583,
        "Eccentricity": 0.0,
        "Inclination(deg)": 53.0,
        "Latitude(deg)": 21.72115892575602,
        "Longitude(deg)": 39.440444799744164,
        "Mean Anomaly(deg)": 27.51458424897003,
        "RAAN(deg)": 124.9636860945769,
        "Satellite Name": "Starlink Shell 1 571",
        "Satellite Number": 571,
        "Semi-Major Axis(m)": 6931778.249405717,
        "Time(s)": 700
    },
    {
        "Altitude(m)": 554006.5256845168,
        "Argument of Periapsis(deg)": 0.024749072045297815,
        "Eccentricity": 0.0,
        "Inclination(deg)": 53.0,
        "Latitude(deg)": 22.20106717596094,
        "Longitude(deg)": 39.83679544720648,
        "Mean Anomaly(deg)": 28.1414154525267,
        "RAAN(deg)": 124.96316732449945,
        "Satellite Name": "Starlink Shell 1 571",
        "Satellite Number": 571,
        "Semi-Major Axis(m)": 6931778.249405717,
        "Time(s)": 710
    },
    {
        "Altitude(m)": 554055.8494138019,
        "Argument of Periapsis(deg)": 0.025097650524809053,
        "Eccentricity": 0.0,
        "Inclination(deg)": 53.0,
        "Latitude(deg)": 22.6797647128284,
        "Longitude(deg)": 40.2361257432586,
        "Mean Anomaly(deg)": 28.76824665608345,
        "RAAN(deg)": 124.96264855442197,
        "Satellite Name": "Starlink Shell 1 571",
        "Satellite Number": 571,
        "Semi-Major Axis(m)": 6931778.249405717,
        "Time(s)": 720
    },
    {
        "Altitude(m)": 554107.0185731811,
        "Argument of Periapsis(deg)": 0.02544622900432029,
        "Eccentricity": 0.0,
        "Inclination(deg)": 53.0,
        "Latitude(deg)": 23.157214456408802,
        "Longitude(deg)": 40.63852053167331,
        "Mean Anomaly(deg)": 29.395077859640118,
        "RAAN(deg)": 124.9621297843445,
        "Satellite Name": "Starlink Shell 1 571",
        "Satellite Number": 571,
        "Semi-Major Axis(m)": 6931778.249405717,
        "Time(s)": 730
    },
    {
        "Altitude(m)": 554159.9877890925,
        "Argument of Periapsis(deg)": 0.02579480748383153,
        "Eccentricity": 0.0,
        "Inclination(deg)": 53.0,
        "Latitude(deg)": 23.633378599741768,
        "Longitude(deg)": 41.04406533525574,
        "Mean Anomaly(deg)": 30.021909063196865,
        "RAAN(deg)": 124.96161101426702,
        "Satellite Name": "Starlink Shell 1 571",
        "Satellite Number": 571,
        "Semi-Major Axis(m)": 6931778.249405717,
        "Time(s)": 740
    },
    {
        "Altitude(m)": 554214.7109525125,
        "Argument of Periapsis(deg)": 0.026143385963342765,
        "Eccentricity": 0.0,
        "Inclination(deg)": 53.0,
        "Latitude(deg)": 24.10821858451543,
        "Longitude(deg)": 41.45284688039381,
        "Mean Anomaly(deg)": 30.648740266753613,
        "RAAN(deg)": 124.96109224418957,
        "Satellite Name": "Starlink Shell 1 571",
        "Satellite Number": 571,
        "Semi-Major Axis(m)": 6931778.249405717,
        "Time(s)": 750
    }
]